NORAD_CAT_ID,OBJECT_NAME,OBJECT_TYPE,EPOCH,MEAN_MOTION,ECCENTRICITY,INCLINATION,RA_OF_ASC_NODE,ARG_OF_PERICENTER,MEAN_ANOMALY,BSTAR,MEAN_MOTION_DOT,MEAN_MOTION_DDOT,TLE_LINE0,TLE_LINE1,TLE_LINE2,SEMIMAJOR_AXIS,PERIOD,APOGEE,PERIGEE,DECAYED
51784.0,STARLINK-3632,PAYLOAD,2024-05-30 20:04:06,15.08854869,0.0001439,53.2176,17.4442,84.2241,275.8915,0.0001333,1.835e-05,0.0,0 STARLINK-3632,1 51784U 22017S   24151.83618296  .00001835  00000-0  13330-3 0  9993,2 51784  53.2176  17.4442 0001439  84.2241 275.8915 15.08854869124470,6917.835,95.437,540.695,538.704,0.0
51784.0,STARLINK-3632,PAYLOAD,2024-05-31 00:50:15,15.08855546,0.0001466,53.2178,16.5531,83.8128,276.3032,0.0001508,2.114e-05,0.0,0 STARLINK-3632,1 51784U 22017S   24152.03490155  .00002114  00000-0  15080-3 0  9993,2 51784  53.2178  16.5531 0001466  83.8128 276.3032 15.08855546124503,6917.833,95.437,540.712,538.684,0.0
51784.0,STARLINK-3632,PAYLOAD,2024-05-31 21:30:16,15.08846683,0.0001313,53.2182,12.6895,83.3934,276.7208,9.7561e-05,1.265e-05,0.0,0 STARLINK-3632,1 51784U 22017S   24152.89602321  .00001265  00000-0  97561-4 0  9998,2 51784  53.2182  12.6895 0001313  83.3934 276.7208 15.08846683126287,6917.86,95.437,540.633,538.817,0.0
51784.0,STARLINK-3632,PAYLOAD,2024-06-01 00:41:02,15.08847655,0.0001377,53.2181,12.0949,84.2509,275.864,0.0001134,1.518e-05,0.0,0 STARLINK-3632,1 51784U 22017S   24153.02850244  .00001518  00000-0  11340-3 0  9994,2 51784  53.2181  12.0949 0001377  84.2509 275.8640 15.08847655124657,6917.857,95.437,540.675,538.769,0.0
51784.0,STARLINK-3632,PAYLOAD,2024-06-01 21:21:03,15.08841614,0.0001226,53.2176,8.2313,89.0635,271.0497,6.5553e-05,7.56e-06,0.0,0 STARLINK-3632,1 51784U 22017S   24153.88962705  .00000756  00000-0  65553-4 0  9993,2 51784  53.2176   8.2313 0001226  89.0635 271.0497 15.08841614126434,6917.875,95.437,540.589,538.892,0.0
51784.0,STARLINK-3632,PAYLOAD,2024-06-02 06:53:22,15.08837227,0.0001236,53.2169,6.4463,81.865,278.2482,-2.701e-05,-7.18e-06,0.0,0 STARLINK-3632,1 51784U 22017S   24154.28706794 -.00000718  00000-0 -27010-4 0  9998,2 51784  53.2169   6.4463 0001236  81.8650 278.2482 15.08837227124841,6917.889,95.438,540.609,538.899,0.0
51784.0,STARLINK-3632,PAYLOAD,2024-06-02 21:11:51,15.08838229,0.000122,53.2179,3.77,78.1217,281.9912,3.017e-05,1.92e-06,0.0,0 STARLINK-3632,1 51784U 22017S   24154.88323211  .00000192  00000-0  30170-4 0  9998,2 51784  53.2179   3.7700 0001220  78.1217 281.9912 15.08838229126582,6917.886,95.438,540.595,538.907,0.0
51784.0,STARLINK-3632,PAYLOAD,2024-06-03 06:44:09,15.08842214,0.0001254,53.2182,1.9861,78.9511,281.1622,6.3301e-05,7.2e-06,0.0,0 STARLINK-3632,1 51784U 22017S   24155.28067004  .00000720  00000-0  63301-4 0  9997,2 51784  53.2182   1.9861 0001254  78.9511 281.1622 15.08842214124998,6917.874,95.437,540.606,538.871,0.0
51784.0,STARLINK-3632,PAYLOAD,2024-06-03 22:38:01,15.08837651,0.0001221,53.2187,359.013,87.115,272.9982,0.00010937,1.453e-05,0.0,0 STARLINK-3632,1 51784U 22017S   24155.94307577  .00001453  00000-0  10937-3 0  9992,2 51784  53.2187 359.0130 0001221  87.1150 272.9982 15.08837651125092,6917.888,95.438,540.597,538.908,0.0
51784.0,STARLINK-3632,PAYLOAD,2024-06-04 12:56:29,15.08839778,0.0001313,53.2188,356.3369,85.6534,274.4608,0.00011517,1.545e-05,0.0,0 STARLINK-3632,1 51784U 22017S   24156.53923609  .00001545  00000-0  11517-3 0  9995,2 51784  53.2188 356.3369 0001313  85.6534 274.4608 15.08839778125182,6917.881,95.438,540.654,538.838,0.0
51784.0,STARLINK-3632,PAYLOAD,2024-06-05 06:25:43,15.0884743,0.000137,53.2201,353.0673,86.0256,274.0893,0.00015325,2.152e-05,0.0,0 STARLINK-3632,1 51784U 22017S   24157.26786984  .00002152  00000-0  15325-3 0  9995,2 51784  53.2201 353.0673 0001370  86.0256 274.0893 15.08847430126940,6917.858,95.437,540.67,538.775,0.0
51784.0,STARLINK-3632,PAYLOAD,2024-06-05 19:08:49,15.0884314,0.0002009,53.2124,350.6858,89.4637,270.6585,0.00011575,1.555e-05,0.0,0 STARLINK-3632,1 51784U 22017S   24157.79779434  .00001555  00000-0  11575-3 0  9994,2 51784  53.2124 350.6858 0002009  89.4637 270.6585 15.08843140127026,6917.871,95.437,541.126,538.346,0.0
51784.0,STARLINK-3632,PAYLOAD,2024-06-06 06:16:31,15.08837515,0.0001514,53.2101,348.6036,95.6998,264.4167,4.5825e-05,4.41e-06,0.0,0 STARLINK-3632,1 51784U 22017S   24158.26147655  .00000441  00000-0  45825-4 0  9990,2 51784  53.2101 348.6036 0001514  95.6998 264.4167 15.08837515125445,6917.888,95.438,540.8,538.706,0.0
51784.0,STARLINK-3632,PAYLOAD,2024-06-06 18:59:36,15.08843953,0.0001388,53.2094,346.2236,99.2831,260.8318,0.00013946,1.932e-05,0.0,0 STARLINK-3632,1 51784U 22017S   24158.79139289  .00001932  00000-0  13946-3 0  9996,2 51784  53.2094 346.2236 0001388  99.2831 260.8318 15.08843953125527,6917.868,95.437,540.694,538.773,0.0
51784.0,STARLINK-3632,PAYLOAD,2024-06-07 18:50:22,15.08857022,0.0002072,53.2151,341.7641,101.0517,259.0708,0.00028999,4.332e-05,0.0,0 STARLINK-3632,1 51784U 22017S   24159.78498096  .00004332  00000-0  28999-3 0  9991,2 51784  53.2151 341.7641 0002072 101.0517 259.0708 15.08857022127320,6917.828,95.436,541.127,538.26,0.0
51784.0,STARLINK-3632,PAYLOAD,2024-06-07 22:01:08,15.08848689,7.92e-05,53.2227,341.1721,104.2939,255.8141,7.6724e-05,9.34e-06,0.0,0 STARLINK-3632,1 51784U 22017S   24159.91746375  .00000934  00000-0  76724-4 0  9996,2 51784  53.2227 341.1721 0000792 104.2939 255.8141 15.08848689125699,6917.854,95.437,540.267,539.171,0.0
51784.0,STARLINK-3632,PAYLOAD,2024-06-09 04:13:29,15.088367,8.27e-05,53.2192,335.5217,87.723,272.3857,-0.00022949,-3.938e-05,0.0,0 STARLINK-3632,1 51784U 22017S   24161.17603283 -.00003938  00000-0 -22949-3 0  9995,2 51784  53.2192 335.5217 0000827  87.7230 272.3857 15.08836700127539,6917.89,95.438,540.328,539.183,0.0
51784.0,STARLINK-3632,PAYLOAD,2024-06-09 12:10:24,15.08851592,0.0001009,53.2175,334.0351,79.8175,280.2931,-0.0007446,-0.00012122,0.0,0 STARLINK-3632,1 51784U 22017S   24161.50722582 -.00012122  00000-0 -74460-3 0  9996,2 51784  53.2175 334.0351 0001009  79.8175 280.2931 15.08851592127588,6917.845,95.437,540.408,539.012,0.0
51784.0,STARLINK-3632,PAYLOAD,2024-06-09 18:31:57,15.08834351,5.8e-05,53.2198,332.8464,71.3408,288.7647,8.7422e-05,1.104e-05,0.0,0 STARLINK-3632,1 51784U 22017S   24161.77219524  .00001104  00000-0  87422-4 0  9991,2 51784  53.2198 332.8464 0000580  71.3408 288.7647 15.08834351127629,6917.898,95.438,540.164,539.361,0.0
51784.0,STARLINK-3632,PAYLOAD,2024-06-10 12:01:13,15.0881997,0.0001068,53.2177,329.5756,84.0733,276.0381,0.00039581,6.014e-05,0.0,0 STARLINK-3632,1 51784U 22017S   24162.50084645  .00006014  00000-0  39581-3 0  9994,2 51784  53.2177 329.5756 0001068  84.0733 276.0381 15.08819970127734,6917.942,95.439,540.545,539.068,0.0
51784.0,STARLINK-3632,PAYLOAD,2024-06-10 18:22:44,15.08838723,9.08e-05,53.2176,328.3851,76.1936,283.9157,0.00026365,3.911e-05,0.0,0 STARLINK-3632,1 51784U 22017S   24162.76579772  .00003911  00000-0  26365-3 0  9991,2 51784  53.2176 328.3851 0000908  76.1936 283.9157 15.08838723127774,6917.884,95.438,540.377,539.121,0.0
51784.0,STARLINK-3632,PAYLOAD,2024-06-11 03:55:04,15.08838674,8.78e-05,53.2166,326.6017,81.0857,279.0234,0.00020889,3.038e-05,0.0,0 STARLINK-3632,1 51784U 22017S   24163.16324180  .00003038  00000-0  20889-3 0  9992,2 51784  53.2166 326.6017 0000878  81.0857 279.0234 15.08838674126182,6917.884,95.438,540.357,539.142,0.0
51784.0,STARLINK-3632,PAYLOAD,2024-06-12 03:45:50,15.08844089,0.0001207,53.2182,322.1413,69.725,290.3871,0.00012697,1.734e-05,0.0,0 STARLINK-3632,1 51784U 22017S   24164.15684001  .00001734  00000-0  12697-3 0  9992,2 51784  53.2182 322.1413 0001207  69.7250 290.3871 15.08844089127987,6917.868,95.437,540.568,538.898,0.0
51784.0,STARLINK-3632,PAYLOAD,2024-06-12 18:04:20,15.08835561,0.0001026,53.2181,319.4666,79.2628,280.8479,-6.8082e-06,-3.96e-06,0.0,0 STARLINK-3632,1 51784U 22017S   24164.75301034 -.00000396  00000-0 -68082-5 0  9996,2 51784  53.2181 319.4666 0001026  79.2628 280.8479 15.08835561128073,6917.894,95.438,540.469,539.049,0.0
51784.0,STARLINK-3632,PAYLOAD,2024-06-13 14:44:20,15.08841524,0.0001085,53.2172,315.6003,72.3129,287.7982,0.00010608,1.401e-05,0.0,0 STARLINK-3632,1 51784U 22017S   24165.61412472  .00001401  00000-0  10608-3 0  9996,2 51784  53.2172 315.6003 0001085  72.3129 287.7982 15.08841524126553,6917.876,95.437,540.491,538.99,0.0
51784.0,STARLINK-3632,PAYLOAD,2024-06-13 16:19:43,15.08846206,0.0001015,53.2169,315.3024,71.729,288.3812,7.3058e-05,8.75e-06,0.0,0 STARLINK-3632,1 51784U 22017S   24165.68036237  .00000875  00000-0  73058-4 0  9997,2 51784  53.2169 315.3024 0001015  71.7290 288.3812 15.08846206126566,6917.861,95.437,540.429,539.024,0.0
51784.0,STARLINK-3632,PAYLOAD,2024-06-14 14:35:07,15.08839263,0.0001131,53.2174,311.1399,67.3811,292.73,0.00022253,3.255e-05,0.0,0 STARLINK-3632,1 51784U 22017S   24166.60772785  .00003255  00000-0  22253-3 0  9990,2 51784  53.2174 311.1399 0001131  67.3811 292.7300 15.08839263126702,6917.883,95.438,540.53,538.965,0.0
51784.0,STARLINK-3632,PAYLOAD,2024-06-15 14:25:54,15.08839539,0.0001157,53.2176,306.6775,79.24,280.8722,2.1971e-05,6.2e-07,0.0,0 STARLINK-3632,1 51784U 22017S   24167.60132739  .00000062  00000-0  21971-4 0  9990,2 51784  53.2176 306.6775 0001157  79.2400 280.8722 15.08839539126853,6917.882,95.438,540.547,538.946,0.0
51784.0,STARLINK-3632,PAYLOAD,2024-06-15 19:12:03,15.08846789,0.0001057,53.2188,305.7841,86.666,273.4453,2.8586e-05,1.67e-06,0.0,0 STARLINK-3632,1 51784U 22017S   24167.80004319  .00000167  00000-0  28586-4 0  9999,2 51784  53.2188 305.7841 0001057  86.6660 273.4453 15.08846789126886,6917.86,95.437,540.456,538.993,0.0
51784.0,STARLINK-3632,PAYLOAD,2024-06-16 14:16:41,15.08843861,0.0001021,53.2181,302.2144,94.4653,265.6456,8.3771e-05,1.046e-05,0.0,0 STARLINK-3632,1 51784U 22017S   24168.59492338  .00001046  00000-0  83771-4 0  9992,2 51784  53.2181 302.2144 0001021  94.4653 265.6456 15.08843861127006,6917.869,95.437,540.44,539.027,0.0
